STARLINK-4043
1 52836U 22062G   26092.81590060 -.00003259  00000+0 -17974-3 0  9995
2 52836  53.2254 285.9932 0001066 296.3603  63.7280 15.10188335209425
STARLINK-4293
1 52989U 22076D   26092.83335647 -.00021347  00000+0 -12778-2 0  9993
2 52989  53.2182 355.3489 0001372  95.4519 328.4471 15.10211143  5776
STARLINK-4279
1 53018U 22076AJ  26092.87657350  .00002660  00000+0  17860-3 0  9992
2 53018  53.2183 335.5823 0001376  95.3572 264.7578 15.10205890206635
STARLINK-4045
1 53152U 22083W   26092.88617252  .00001488  00000+0  10773-3 0  9990
2 53152  53.2190  55.1539 0001145  85.7348 274.3776 15.10188484205016
STARLINK-5041
1 53891U 22119F   26092.36798493  .00001624  00000+0  11597-3 0  9997
2 53891  53.2132 217.5184 0001262  79.4534 280.6601 15.10194233195260
